start=new Date('2023-02-17T00:00:00.000Z').valueOf();
sats=[{"DECAY_DATE":null,"OBJECT_TYPE":"PAYLOAD","RCS_SIZE":"LARGE","ELEMENT_SET_NO":"999","TIME_SYSTEM":"UTC","REV_AT_EPOCH":"130","OBJECT_NAME":"STARLINK-5427","OBJECT_ID":"2022-177AK","MEAN_MOTION_DOT":"-0.01083147","TLE_LINE2":"2 54853  43.0007  83.8802 0001243 264.8824  84.1141 15.49152227  1305","PERIOD":"92.954","APOAPSIS":"420.052","EPHEMERIS_TYPE":"0","LAUNCH_DATE":"2022-12-28","TLE_LINE1":"1 54853U 22177AK  23045.83334491 -.01083147  00000-0 -21450-1 0  9992","MEAN_ELEMENT_THEORY":"SGP4","SEMIMAJOR_AXIS":"6797.342","NORAD_CAT_ID":"54853","INCLINATION":"43.0007","ARG_OF_PERICENTER":"264.8824","CENTER_NAME":"EARTH","EPOCH":"2023-02-14T20:00:01.000224","GP_ID":"225435813","MEAN_MOTION":"15.49152227","RA_OF_ASC_NODE":"83.8802","CLASSIFICATION_TYPE":"U","ECCENTRICITY":"0.00012430","MEAN_ANOMALY":"84.1141","COUNTRY_CODE":"US","SITE":"AFETR","PERIAPSIS":"418.362","FILE":"3792084","MEAN_MOTION_DDOT":"0.0000000000000","BSTAR":"-0.02145000000000","REF_FRAME":"TEME"},{"TLE_LINE2":"2 54854  43.0006  83.8634 0001204 261.7855  93.7840 15.48939120  1301","MEAN_MOTION_DOT":"-0.00050339","REV_AT_EPOCH":"130","OBJECT_NAME":"STARLINK-5419","OBJECT_ID":"2022-177AL","RCS_SIZE":"LARGE","TIME_SYSTEM":"UTC","ELEMENT_SET_NO":"999","DECAY_DATE":null,"OBJECT_TYPE":"PAYLOAD","INCLINATION":"43.0006","ARG_OF_PERICENTER":"261.7855","MEAN_ELEMENT_THEORY":"SGP4","SEMIMAJOR_AXIS":"6797.965","NORAD_CAT_ID":"54854","LAUNCH_DATE":"2022-12-28","TLE_LINE1":"1 54854U 22177AL  23045.83334491 -.00050339  00000-0 -90918-3 0  9996","APOAPSIS":"420.649","PERIOD":"92.967","EPHEMERIS_TYPE":"0","COUNTRY_CODE":"US","RA_OF_ASC_NODE":"83.8634","MEAN_ANOMALY":"93.7840","ECCENTRICITY":"0.00012040","CLASSIFICATION_TYPE":"U","EPOCH":"2023-02-14T20:00:01.000224","CENTER_NAME":"EARTH","MEAN_MOTION":"15.48939120","GP_ID":"225436565","BSTAR":"-0.00090918000000","MEAN_MOTION_DDOT":"0.0000000000000","REF_FRAME":"TEME","FILE":"3792084","SITE":"AFETR","PERIAPSIS":"419.012"},{"ARG_OF_PERICENTER":"266.2462","INCLINATION":"43.0007","NORAD_CAT_ID":"54855","SEMIMAJOR_AXIS":"6797.827","MEAN_ELEMENT_THEORY":"SGP4","LAUNCH_DATE":"2022-12-28","TLE_LINE1":"1 54855U 22177AM  23045.83334491 -.00168173  00000-0 -30926-2 0  9995","APOAPSIS":"420.784","PERIOD":"92.964","EPHEMERIS_TYPE":"0","TLE_LINE2":"2 54855  43.0007  83.8678 0001606 266.2462  87.8009 15.48986381  1303","MEAN_MOTION_DOT":"-0.00168173","OBJECT_NAME":"STARLINK-5416","REV_AT_EPOCH":"130","OBJECT_ID":"2022-177AM","RCS_SIZE":"LARGE","TIME_SYSTEM":"UTC","ELEMENT_SET_NO":"999","DECAY_DATE":null,"OBJECT_TYPE":"PAYLOAD","BSTAR":"-0.00309260000000","MEAN_MOTION_DDOT":"0.0000000000000","REF_FRAME":"TEME","FILE":"3792084","SITE":"AFETR","PERIAPSIS":"418.600","COUNTRY_CODE":"US","RA_OF_ASC_NODE":"83.8678","MEAN_ANOMALY":"87.8009","CLASSIFICATION_TYPE":"U","ECCENTRICITY":"0.00016060","EPOCH":"2023-02-14T20:00:01.000224","CENTER_NAME":"EARTH","MEAN_MOTION":"15.48986381","GP_ID":"225436306"},{"EPHEMERIS_TYPE":"0","APOAPSIS":"420.909","PERIOD":"92.967","TLE_LINE1":"1 54856U 22177AN  23045.83334491 -.00053540  00000-0 -96799-3 0  9998","LAUNCH_DATE":"2022-12-28","NORAD_CAT_ID":"54856","SEMIMAJOR_AXIS":"6797.986","MEAN_ELEMENT_THEORY":"SGP4","INCLINATION":"43.0006","ARG_OF_PERICENTER":"268.9917","OBJECT_TYPE":"PAYLOAD","DECAY_DATE":null,"TIME_SYSTEM":"UTC","ELEMENT_SET_NO":"999","RCS_SIZE":"LARGE","OBJECT_ID":"2022-177AN","OBJECT_NAME":"STARLINK-5086","REV_AT_EPOCH":"777","TLE_LINE2":"2 54856  43.0006  83.8374 0001556 268.9917  96.9995 15.48932030  7778","MEAN_MOTION_DOT":"-0.00053540","PERIAPSIS":"418.793","SITE":"AFETR","FILE":"3794018","REF_FRAME":"TEME","BSTAR":"-0.00096799000000","MEAN_MOTION_DDOT":"0.0000000000000","MEAN_MOTION":"15.48932030","GP_ID":"225503059","CENTER_NAME":"EARTH","EPOCH":"2023-02-14T20:00:01.000224","MEAN_ANOMALY":"96.9995","CLASSIFICATION_TYPE":"U","ECCENTRICITY":"0.00015560","RA_OF_ASC_NODE":"83.8374","COUNTRY_CODE":"US"},{"INCLINATION":"43.0008","ARG_OF_PERICENTER":"264.4294","NORAD_CAT_ID":"54857","SEMIMAJOR_AXIS":"6797.324","MEAN_ELEMENT_THEORY":"SGP4","LAUNCH_DATE":"2022-12-28","TLE_LINE1":"1 54857U 22177AP  23045.83334491 -.01052567  00000-0 -20780-1 0  9993","PERIOD":"92.954","APOAPSIS":"420.004","EPHEMERIS_TYPE":"0","MEAN_MOTION_DOT":"-0.01052567","TLE_LINE2":"2 54857  43.0008  83.8760 0001198 264.4294  86.2079 15.49158190  1307","OBJECT_NAME":"STARLINK-5078","REV_AT_EPOCH":"130","OBJECT_ID":"2022-177AP","RCS_SIZE":"LARGE","ELEMENT_SET_NO":"999","TIME_SYSTEM":"UTC","DECAY_DATE":null,"OBJECT_TYPE":"PAYLOAD","MEAN_MOTION_DDOT":"0.0000000000000","BSTAR":"-0.02078000000000","REF_FRAME":"TEME","FILE":"3792084","SITE":"AFETR","PERIAPSIS":"418.375","COUNTRY_CODE":"US","RA_OF_ASC_NODE":"83.8760","ECCENTRICITY":"0.00011980","CLASSIFICATION_TYPE":"U","MEAN_ANOMALY":"86.2079","EPOCH":"2023-02-14T20:00:01.000224","CENTER_NAME":"EARTH","GP_ID":"225435314","MEAN_MOTION":"15.49158190"},{"COUNTRY_CODE":"US","RA_OF_ASC_NODE":"83.8544","ECCENTRICITY":"0.00013780","CLASSIFICATION_TYPE":"U","MEAN_ANOMALY":"96.3909","CENTER_NAME":"EARTH","EPOCH":"2023-02-14T20:00:01.000224","GP_ID":"225436066","MEAN_MOTION":"15.48940735","MEAN_MOTION_DDOT":"0.0000000000000","BSTAR":"-0.00103180000000","REF_FRAME":"TEME","FILE":"3792084","SITE":"AFETR","PERIAPSIS":"418.889","MEAN_MOTION_DOT":"-0.00057038","TLE_LINE2":"2 54858  43.0008  83.8544 0001378 262.6556  96.3909 15.48940735  1306","REV_AT_EPOCH":"130","OBJECT_NAME":"STARLINK-5407","OBJECT_ID":"2022-177AQ","RCS_SIZE":"LARGE","ELEMENT_SET_NO":"999","TIME_SYSTEM":"UTC","DECAY_DATE":null,"OBJECT_TYPE":"PAYLOAD","ARG_OF_PERICENTER":"262.6556","INCLINATION":"43.0008","SEMIMAJOR_AXIS":"6797.961","NORAD_CAT_ID":"54858","MEAN_ELEMENT_THEORY":"SGP4","LAUNCH_DATE":"2022-12-28","TLE_LINE1":"1 54858U 22177AQ  23045.83334491 -.00057038  00000-0 -10318-2 0  9998","PERIOD":"92.967","APOAPSIS":"420.762","EPHEMERIS_TYPE":"0"},{"ARG_OF_PERICENTER":"263.4857","INCLINATION":"43.0004","NORAD_CAT_ID":"54859","SEMIMAJOR_AXIS":"6797.960","MEAN_ELEMENT_THEORY":"SGP4","LAUNCH_DATE":"2022-12-28","TLE_LINE1":"1 54859U 22177AR  23045.83334491 -.00058496  00000-0 -10585-2 0  9994","APOAPSIS":"420.798","PERIOD":"92.967","EPHEMERIS_TYPE":"0","TLE_LINE2":"2 54859  43.0004  83.8424 0001432 263.4857 100.7812 15.48941085  1306","MEAN_MOTION_DOT":"-0.00058496","REV_AT_EPOCH":"130","OBJECT_NAME":"STARLINK-5409","OBJECT_ID":"2022-177AR","RCS_SIZE":"LARGE","TIME_SYSTEM":"UTC","ELEMENT_SET_NO":"999","DECAY_DATE":null,"OBJECT_TYPE":"PAYLOAD","BSTAR":"-0.00105850000000","MEAN_MOTION_DDOT":"0.0000000000000","REF_FRAME":"TEME","FILE":"3792084","SITE":"AFETR","PERIAPSIS":"418.851","COUNTRY_CODE":"US","RA_OF_ASC_NODE":"83.8424","MEAN_ANOMALY":"100.7812","CLASSIFICATION_TYPE":"U","ECCENTRICITY":"0.00014320","EPOCH":"2023-02-14T20:00:01.000224","CENTER_NAME":"EARTH","MEAN_MOTION":"15.48941085","GP_ID":"225436806"},{"OBJECT_TYPE":"PAYLOAD","DECAY_DATE":null,"TIME_SYSTEM":"UTC","ELEMENT_SET_NO":"999","RCS_SIZE":"LARGE","OBJECT_ID":"2022-177AS","OBJECT_NAME":"STARLINK-5406","REV_AT_EPOCH":"130","TLE_LINE2":"2 54860  43.0006  83.8331 0001424 266.6375 101.0606 15.48940786  1300","MEAN_MOTION_DOT":"-0.00057971","EPHEMERIS_TYPE":"0","APOAPSIS":"420.793","PERIOD":"92.967","TLE_LINE1":"1 54860U 22177AS  23045.83334491 -.00057971  00000-0 -10489-2 0  9996","LAUNCH_DATE":"2022-12-28","SEMIMAJOR_AXIS":"6797.960","NORAD_CAT_ID":"54860","MEAN_ELEMENT_THEORY":"SGP4","ARG_OF_PERICENTER":"266.6375","INCLINATION":"43.0006","MEAN_MOTION":"15.48940786","GP_ID":"225435564","EPOCH":"2023-02-14T20:00:01.000224","CENTER_NAME":"EARTH","MEAN_ANOMALY":"101.0606","CLASSIFICATION_TYPE":"U","ECCENTRICITY":"0.00014240","RA_OF_ASC_NODE":"83.8331","COUNTRY_CODE":"US","PERIAPSIS":"418.857","SITE":"AFETR","FILE":"3792084","REF_FRAME":"TEME","BSTAR":"-0.00104890000000","MEAN_MOTION_DDOT":"0.0000000000000"},{"PERIOD":"92.967","APOAPSIS":"420.666","EPHEMERIS_TYPE":"0","LAUNCH_DATE":"2022-12-28","TLE_LINE1":"1 54861U 22177AT  23045.83334491 -.00053399  00000-0 -96520-3 0  9998","NORAD_CAT_ID":"54861","SEMIMAJOR_AXIS":"6797.966","MEAN_ELEMENT_THEORY":"SGP4","ARG_OF_PERICENTER":"263.4660","INCLINATION":"43.0007","DECAY_DATE":null,"OBJECT_TYPE":"PAYLOAD","RCS_SIZE":"LARGE","ELEMENT_SET_NO":"999","TIME_SYSTEM":"UTC","REV_AT_EPOCH":"130","OBJECT_NAME":"STARLINK-5400","OBJECT_ID":"2022-177AT","MEAN_MOTION_DOT":"-0.00053399","TLE_LINE2":"2 54861  43.0007  83.8588 0001228 263.4660  93.9322 15.48938900  1309","SITE":"AFETR","PERIAPSIS":"418.996","FILE":"3792084","MEAN_MOTION_DDOT":"0.0000000000000","BSTAR":"-0.00096520000000","REF_FRAME":"TEME","EPOCH":"2023-02-14T20:00:01.000224","CENTER_NAME":"EARTH","GP_ID":"225435814","MEAN_MOTION":"15.48938900","RA_OF_ASC_NODE":"83.8588","CLASSIFICATION_TYPE":"U","ECCENTRICITY":"0.00012280","MEAN_ANOMALY":"93.9322","COUNTRY_CODE":"US"},{"CLASSIFICATION_TYPE":"U","ECCENTRICITY":"0.00013710","MEAN_ANOMALY":"310.5135","RA_OF_ASC_NODE":"84.2083","GP_ID":"225445051","MEAN_MOTION":"15.46662668","EPOCH":"2023-02-14T20:00:01.000224","CENTER_NAME":"EARTH","COUNTRY_CODE":"US","PERIAPSIS":"425.566","SITE":"AFETR","REF_FRAME":"TEME","MEAN_MOTION_DDOT":"0.0000000000000","BSTAR":"-0.02173600000000","FILE":"3792431","ELEMENT_SET_NO":"999","TIME_SYSTEM":"UTC","RCS_SIZE":"LARGE","OBJECT_TYPE":"PAYLOAD","DECAY_DATE":null,"MEAN_MOTION_DOT":"-0.01012327","TLE_LINE2":"2 54862  43.0000  84.2083 0001371 265.3739 310.5135 15.46662668  7775","OBJECT_ID":"2022-177AU","REV_AT_EPOCH":"777","OBJECT_NAME":"STARLINK-5403","TLE_LINE1":"1 54862U 22177AU  23045.83334491 -.01012327  00000-0 -21736-1 0  9991","LAUNCH_DATE":"2022-12-28","EPHEMERIS_TYPE":"0","PERIOD":"93.104","APOAPSIS":"427.432","INCLINATION":"43.0000","ARG_OF_PERICENTER":"265.3739","SEMIMAJOR_AXIS":"6804.634","NORAD_CAT_ID":"54862","MEAN_ELEMENT_THEORY":"SGP4"}];
